[{"OBJECT_NAME":"STARLINK-31787","OBJECT_ID":"2024-082V","EPOCH":"2026-03-09T05:50:33.653184","MEAN_MOTION":15.27563218,"ECCENTRICITY":0.00013535,"INCLINATION":43.0025,"RA_OF_ASC_NODE":142.3366,"ARG_OF_PERICENTER":279.3186,"MEAN_ANOMALY":80.7512,"EPHEMERIS_TYPE":0,"CLASSIFICATION_TYPE":"U","NORAD_CAT_ID":59650,"ELEMENT_SET_NO":999,"REV_AT_EPOCH":10494,"BSTAR":4.8583506e-5,"MEAN_MOTION_DOT":1.074e-5,"MEAN_MOTION_DDOT":0},{"OBJECT_NAME":"ATLAS F DEB","OBJECT_ID":"1978-047C","EPOCH":"2026-03-09T21:11:22.529760","MEAN_MOTION":12.47735571,"ECCENTRICITY":0.12806369,"INCLINATION":63.6672,"RA_OF_ASC_NODE":306.5337,"ARG_OF_PERICENTER":6.5078,"MEAN_ANOMALY":63.9186,"EPHEMERIS_TYPE":0,"CLASSIFICATION_TYPE":"U","NORAD_CAT_ID":29197,"ELEMENT_SET_NO":999,"REV_AT_EPOCH":74601,"BSTAR":0.094503922,"MEAN_MOTION_DOT":0.00406138,"MEAN_MOTION_DDOT":0}]
